CCSDS_OMM_VERS = 2.0
CREATION_DATE  = 
ORIGINATOR     = 

OBJECT_NAME    = CZ-2C R/B
OBJECT_ID      = 2022-132E
CENTER_NAME    = EARTH
REF_FRAME      = TEME
TIME_SYSTEM    = UTC
MEAN_ELEMENT_THEORY = SGP/SGP4

EPOCH          = 2026-01-27T12:16:12.006912
MEAN_MOTION    = 15.58241456
ECCENTRICITY   = .001674
INCLINATION    = 97.2953
RA_OF_ASC_NODE = 29.6999
ARG_OF_PERICENTER = 239.3086
MEAN_ANOMALY   = 120.6521

EPHEMERIS_TYPE = 0
CLASSIFICATION_TYPE = U
NORAD_CAT_ID   = 54039
ELEMENT_SET_NO = 999
REV_AT_EPOCH   = 18395
BSTAR          = .58881E-3
MEAN_MOTION_DOT = .44857E-3
MEAN_MOTION_DDOT = 0

CCSDS_OMM_VERS = 2.0
CREATION_DATE  = 
ORIGINATOR     = 

OBJECT_NAME    = GSLV R/B
OBJECT_ID      = 2022-138AN
CENTER_NAME    = EARTH
REF_FRAME      = TEME
TIME_SYSTEM    = UTC
MEAN_ELEMENT_THEORY = SGP/SGP4

EPOCH          = 2026-01-27T11:11:39.953760
MEAN_MOTION    = 14.96444031
ECCENTRICITY   = .0019743
INCLINATION    = 87.3844
RA_OF_ASC_NODE = 180.1580
ARG_OF_PERICENTER = 305.0965
MEAN_ANOMALY   = 54.8415

EPHEMERIS_TYPE = 0
CLASSIFICATION_TYPE = U
NORAD_CAT_ID   = 54149
ELEMENT_SET_NO = 999
REV_AT_EPOCH   = 17776
BSTAR          = .4284E-3
MEAN_MOTION_DOT = .4903E-4
MEAN_MOTION_DDOT = 0

CCSDS_OMM_VERS = 2.0
CREATION_DATE  = 
ORIGINATOR     = 

OBJECT_NAME    = XRISM
OBJECT_ID      = 2023-137A
CENTER_NAME    = EARTH
REF_FRAME      = TEME
TIME_SYSTEM    = UTC
MEAN_ELEMENT_THEORY = SGP/SGP4

EPOCH          = 2026-01-27T03:53:10.079808
MEAN_MOTION    = 15.10948898
ECCENTRICITY   = .0008076
INCLINATION    = 31.0008
RA_OF_ASC_NODE = 192.1533
ARG_OF_PERICENTER = 343.1535
MEAN_ANOMALY   = 16.8835

EPHEMERIS_TYPE = 0
CLASSIFICATION_TYPE = U
NORAD_CAT_ID   = 57800
ELEMENT_SET_NO = 999
REV_AT_EPOCH   = 13150
BSTAR          = .51633458E-3
MEAN_MOTION_DOT = .8931E-4
MEAN_MOTION_DDOT = 0

CCSDS_OMM_VERS = 2.0
CREATION_DATE  = 
ORIGINATOR     = 

OBJECT_NAME    = ACS3
OBJECT_ID      = 2024-077B
CENTER_NAME    = EARTH
REF_FRAME      = TEME
TIME_SYSTEM    = UTC
MEAN_ELEMENT_THEORY = SGP/SGP4

EPOCH          = 2026-01-27T10:18:04.726368
MEAN_MOTION    = 13.87832752
ECCENTRICITY   = .0048424
INCLINATION    = 97.2307
RA_OF_ASC_NODE = 337.8136
ARG_OF_PERICENTER = 212.6904
MEAN_ANOMALY   = 147.1260

EPHEMERIS_TYPE = 0
CLASSIFICATION_TYPE = U
NORAD_CAT_ID   = 59588
ELEMENT_SET_NO = 999
REV_AT_EPOCH   = 8847
BSTAR          = .19605E-1
MEAN_MOTION_DOT = .23532E-3
MEAN_MOTION_DDOT = 0

CCSDS_OMM_VERS = 2.0
CREATION_DATE  = 
ORIGINATOR     = 

OBJECT_NAME    = SZ-21 MODULE
OBJECT_ID      = 2025-246C
CENTER_NAME    = EARTH
REF_FRAME      = TEME
TIME_SYSTEM    = UTC
MEAN_ELEMENT_THEORY = SGP/SGP4

EPOCH          = 2026-01-27T12:27:10.432800
MEAN_MOTION    = 15.65446775
ECCENTRICITY   = .0003257
INCLINATION    = 41.4755
RA_OF_ASC_NODE = 96.1989
ARG_OF_PERICENTER = 246.4080
MEAN_ANOMALY   = 113.6418

EPHEMERIS_TYPE = 0
CLASSIFICATION_TYPE = U
NORAD_CAT_ID   = 66515
ELEMENT_SET_NO = 999
REV_AT_EPOCH   = 1161
BSTAR          = .39486E-3
MEAN_MOTION_DOT = .40506E-3
MEAN_MOTION_DDOT = 0

